CCSDS_OMM_VERS = 2.0
CREATION_DATE  = 
ORIGINATOR     = 

OBJECT_NAME    = STARLINK-36466
OBJECT_ID      = 2026-003AA
CENTER_NAME    = EARTH
REF_FRAME      = TEME
TIME_SYSTEM    = UTC
MEAN_ELEMENT_THEORY = SGP/SGP4

EPOCH          = 2026-02-06T08:28:40.730880
MEAN_MOTION    = 15.50649243
ECCENTRICITY   = .00018077
INCLINATION    = 42.9994
RA_OF_ASC_NODE = 44.7066
ARG_OF_PERICENTER = 246.2430
MEAN_ANOMALY   = 113.8241

EPHEMERIS_TYPE = 0
CLASSIFICATION_TYPE = U
NORAD_CAT_ID   = 67358
ELEMENT_SET_NO = 999
REV_AT_EPOCH   = 402
BSTAR          = .19150101E-2
MEAN_MOTION_DOT = .113938E-2
MEAN_MOTION_DDOT = 0

CCSDS_OMM_VERS = 2.0
CREATION_DATE  = 
ORIGINATOR     = 

OBJECT_NAME    = STARLINK-36499
OBJECT_ID      = 2026-003AB
CENTER_NAME    = EARTH
REF_FRAME      = TEME
TIME_SYSTEM    = UTC
MEAN_ELEMENT_THEORY = SGP/SGP4

EPOCH          = 2026-02-07T14:00:01.999872
MEAN_MOTION    = 15.37518143
ECCENTRICITY   = .00012089
INCLINATION    = 43.0002
RA_OF_ASC_NODE = 37.6756
ARG_OF_PERICENTER = 266.8884
MEAN_ANOMALY   = 61.6272

EPHEMERIS_TYPE = 0
CLASSIFICATION_TYPE = U
NORAD_CAT_ID   = 67359
ELEMENT_SET_NO = 999
REV_AT_EPOCH   = 583
BSTAR          = -.60815064E-1
MEAN_MOTION_DOT = -.2031705E-1
MEAN_MOTION_DDOT = 0

CCSDS_OMM_VERS = 2.0
CREATION_DATE  = 
ORIGINATOR     = 

OBJECT_NAME    = STARLINK-36469
OBJECT_ID      = 2026-003AC
CENTER_NAME    = EARTH
REF_FRAME      = TEME
TIME_SYSTEM    = UTC
MEAN_ELEMENT_THEORY = SGP/SGP4

EPOCH          = 2026-02-07T14:00:01.999872
MEAN_MOTION    = 15.39147402
ECCENTRICITY   = .00011558
INCLINATION    = 43.0005
RA_OF_ASC_NODE = 37.6328
ARG_OF_PERICENTER = 269.8957
MEAN_ANOMALY   = 76.6540

EPHEMERIS_TYPE = 0
CLASSIFICATION_TYPE = U
NORAD_CAT_ID   = 67360
ELEMENT_SET_NO = 999
REV_AT_EPOCH   = 583
BSTAR          = -.57256118E-1
MEAN_MOTION_DOT = -.2019873E-1
MEAN_MOTION_DDOT = 0

CCSDS_OMM_VERS = 2.0
CREATION_DATE  = 
ORIGINATOR     = 

OBJECT_NAME    = STARLINK-35306
OBJECT_ID      = 2026-003AD
CENTER_NAME    = EARTH
REF_FRAME      = TEME
TIME_SYSTEM    = UTC
MEAN_ELEMENT_THEORY = SGP/SGP4

EPOCH          = 2026-02-07T09:11:23.214912
MEAN_MOTION    = 15.50535972
ECCENTRICITY   = .00037719
INCLINATION    = 43.0013
RA_OF_ASC_NODE = 38.6716
ARG_OF_PERICENTER = 329.8501
MEAN_ANOMALY   = 30.2142

EPHEMERIS_TYPE = 0
CLASSIFICATION_TYPE = U
NORAD_CAT_ID   = 67361
ELEMENT_SET_NO = 999
REV_AT_EPOCH   = 418
BSTAR          = .1850902E-2
MEAN_MOTION_DOT = .109625E-2
MEAN_MOTION_DDOT = 0

CCSDS_OMM_VERS = 2.0
CREATION_DATE  = 
ORIGINATOR     = 

OBJECT_NAME    = STARLINK-36428
OBJECT_ID      = 2026-003AE
CENTER_NAME    = EARTH
REF_FRAME      = TEME
TIME_SYSTEM    = UTC
MEAN_ELEMENT_THEORY = SGP/SGP4

EPOCH          = 2026-02-07T09:10:49.118880
MEAN_MOTION    = 15.50618821
ECCENTRICITY   = .00016646
INCLINATION    = 43.0005
RA_OF_ASC_NODE = 38.6677
ARG_OF_PERICENTER = 269.9392
MEAN_ANOMALY   = 90.1277

EPHEMERIS_TYPE = 0
CLASSIFICATION_TYPE = U
NORAD_CAT_ID   = 67362
ELEMENT_SET_NO = 999
REV_AT_EPOCH   = 418
BSTAR          = .2055207E-2
MEAN_MOTION_DOT = .122303E-2
MEAN_MOTION_DDOT = 0

CCSDS_OMM_VERS = 2.0
CREATION_DATE  = 
ORIGINATOR     = 

OBJECT_NAME    = TWILIGHT A
OBJECT_ID      = 2026-004A
CENTER_NAME    = EARTH
REF_FRAME      = TEME
TIME_SYSTEM    = UTC
MEAN_ELEMENT_THEORY = SGP/SGP4

EPOCH          = 2026-02-07T12:44:42.200736
MEAN_MOTION    = 14.87063443
ECCENTRICITY   = .00082875
INCLINATION    = 97.8005
RA_OF_ASC_NODE = 39.2117
ARG_OF_PERICENTER = 196.5744
MEAN_ANOMALY   = 163.5203

EPHEMERIS_TYPE = 0
CLASSIFICATION_TYPE = U
NORAD_CAT_ID   = 67363
ELEMENT_SET_NO = 999
REV_AT_EPOCH   = 400
BSTAR          = .75944916E-3
MEAN_MOTION_DOT = .6765E-4
MEAN_MOTION_DDOT = 0

CCSDS_OMM_VERS = 2.0
CREATION_DATE  = 
ORIGINATOR     = 

OBJECT_NAME    = TWILIGHT B
OBJECT_ID      = 2026-004B
CENTER_NAME    = EARTH
REF_FRAME      = TEME
TIME_SYSTEM    = UTC
MEAN_ELEMENT_THEORY = SGP/SGP4

EPOCH          = 2026-02-07T12:42:04.557888
MEAN_MOTION    = 14.87198913
ECCENTRICITY   = .00082452
INCLINATION    = 97.8008
RA_OF_ASC_NODE = 39.2145
ARG_OF_PERICENTER = 192.1463
MEAN_ANOMALY   = 167.9555

EPHEMERIS_TYPE = 0
CLASSIFICATION_TYPE = U
NORAD_CAT_ID   = 67364
ELEMENT_SET_NO = 999
REV_AT_EPOCH   = 401
BSTAR          = .85592974E-3
MEAN_MOTION_DOT = .7658E-4
MEAN_MOTION_DDOT = 0

CCSDS_OMM_VERS = 2.0
CREATION_DATE  = 
ORIGINATOR     = 

OBJECT_NAME    = TWILIGHT C
OBJECT_ID      = 2026-004C
CENTER_NAME    = EARTH
REF_FRAME      = TEME
TIME_SYSTEM    = UTC
MEAN_ELEMENT_THEORY = SGP/SGP4

EPOCH          = 2026-02-07T12:41:31.733664
MEAN_MOTION    = 14.87219665
ECCENTRICITY   = .00078232
INCLINATION    = 97.7984
RA_OF_ASC_NODE = 39.2103
ARG_OF_PERICENTER = 197.3674
MEAN_ANOMALY   = 162.7275

EPHEMERIS_TYPE = 0
CLASSIFICATION_TYPE = U
NORAD_CAT_ID   = 67365
ELEMENT_SET_NO = 999
REV_AT_EPOCH   = 401
BSTAR          = .84045868E-3
MEAN_MOTION_DOT = .7522E-4
MEAN_MOTION_DDOT = 0

CCSDS_OMM_VERS = 2.0
CREATION_DATE  = 
ORIGINATOR     = 

OBJECT_NAME    = TWILIGHT D
OBJECT_ID      = 2026-004D
CENTER_NAME    = EARTH
REF_FRAME      = TEME
TIME_SYSTEM    = UTC
MEAN_ELEMENT_THEORY = SGP/SGP4

EPOCH          = 2026-02-07T12:41:18.740832
MEAN_MOTION    = 14.87155297
ECCENTRICITY   = .00084052
INCLINATION    = 97.8040
RA_OF_ASC_NODE = 39.2215
ARG_OF_PERICENTER = 186.4503
MEAN_ANOMALY   = 173.6606

EPHEMERIS_TYPE = 0
CLASSIFICATION_TYPE = U
NORAD_CAT_ID   = 67366
ELEMENT_SET_NO = 999
REV_AT_EPOCH   = 401
BSTAR          = .54718831E-3
MEAN_MOTION_DOT = .4869E-4
MEAN_MOTION_DDOT = 0

CCSDS_OMM_VERS = 2.0
CREATION_DATE  = 
ORIGINATOR     = 

OBJECT_NAME    = TWILIGHT E
OBJECT_ID      = 2026-004E
CENTER_NAME    = EARTH
REF_FRAME      = TEME
TIME_SYSTEM    = UTC
MEAN_ELEMENT_THEORY = SGP/SGP4

EPOCH          = 2026-02-07T14:15:24.601536
MEAN_MOTION    = 14.87339407
ECCENTRICITY   = .00072712
INCLINATION    = 97.7971
RA_OF_ASC_NODE = 39.2767
ARG_OF_PERICENTER = 198.5238
MEAN_ANOMALY   = 161.5715

EPHEMERIS_TYPE = 0
CLASSIFICATION_TYPE = U
NORAD_CAT_ID   = 67367
ELEMENT_SET_NO = 999
REV_AT_EPOCH   = 402
BSTAR          = .83108256E-3
MEAN_MOTION_DOT = .7459E-4
MEAN_MOTION_DDOT = 0

CCSDS_OMM_VERS = 2.0
CREATION_DATE  = 
ORIGINATOR     = 

OBJECT_NAME    = TWILIGHT F
OBJECT_ID      = 2026-004F
CENTER_NAME    = EARTH
REF_FRAME      = TEME
TIME_SYSTEM    = UTC
MEAN_ELEMENT_THEORY = SGP/SGP4

EPOCH          = 2026-02-07T14:14:29.348736
MEAN_MOTION    = 14.87360832
ECCENTRICITY   = .00077704
INCLINATION    = 97.8032
RA_OF_ASC_NODE = 39.2899
ARG_OF_PERICENTER = 187.1125
MEAN_ANOMALY   = 172.9982

EPHEMERIS_TYPE = 0
CLASSIFICATION_TYPE = U
NORAD_CAT_ID   = 67368
ELEMENT_SET_NO = 999
REV_AT_EPOCH   = 402
BSTAR          = .76814076E-3
MEAN_MOTION_DOT = .6893E-4
MEAN_MOTION_DDOT = 0

CCSDS_OMM_VERS = 2.0
CREATION_DATE  = 
ORIGINATOR     = 

OBJECT_NAME    = TWILIGHT G
OBJECT_ID      = 2026-004G
CENTER_NAME    = EARTH
REF_FRAME      = TEME
TIME_SYSTEM    = UTC
MEAN_ELEMENT_THEORY = SGP/SGP4

EPOCH          = 2026-02-07T14:13:48.524736
MEAN_MOTION    = 14.87290249
ECCENTRICITY   = .00066434
INCLINATION    = 97.7963
RA_OF_ASC_NODE = 39.2769
ARG_OF_PERICENTER = 200.6955
MEAN_ANOMALY   = 159.3993

EPHEMERIS_TYPE = 0
CLASSIFICATION_TYPE = U
NORAD_CAT_ID   = 67369
ELEMENT_SET_NO = 999
REV_AT_EPOCH   = 402
BSTAR          = .43585479E-3
MEAN_MOTION_DOT = .3879E-4
MEAN_MOTION_DDOT = 0

