STARLINK-36466          
1 67358U 26003AA  26037.35324920  .00113938  00000+0  19150-2 0  9998
2 67358  42.9994  44.7066 0001807 246.2430 113.8241 15.50649243  4027
STARLINK-36499          
1 67359U 26003AB  26038.58335648 -.02031705  00000+0 -60815-1 0  9992
2 67359  43.0002  37.6756 0001208 266.8884  61.6272 15.37518143  5836
STARLINK-36469          
1 67360U 26003AC  26038.58335648 -.02019873  00000+0 -57256-1 0  9991
2 67360  43.0005  37.6328 0001155 269.8957  76.6540 15.39147402  5833
STARLINK-35306          
1 67361U 26003AD  26038.38290758  .00109625  00000+0  18509-2 0  9992
2 67361  43.0013  38.6716 0003771 329.8501  30.2142 15.50535972  4180
STARLINK-36428          
1 67362U 26003AE  26038.38251295  .00122303  00000+0  20552-2 0  9995
2 67362  43.0005  38.6677 0001664 269.9392  90.1277 15.50618821  4188
LEMUR-2-KUTAR           
1 67363U 26004A   26038.53104399  .00006765  00000+0  75945-3 0  9996
2 67363  97.8005  39.2117 0008287 196.5744 163.5203 14.87063443  4004
LEMUR-2-CALLUM-K-J      
1 67364U 26004B   26038.52921942  .00007658  00000+0  85593-3 0  9999
2 67364  97.8008  39.2145 0008245 192.1463 167.9555 14.87198913  4013
LEMUR-2-MARIO-SOUSA     
1 67365U 26004C   26038.52883951  .00007522  00000+0  84046-3 0  9999
2 67365  97.7984  39.2103 0007823 197.3674 162.7275 14.87219665  4012
TWILIGHT D              
1 67366U 26004D   26038.52868913  .00004869  00000+0  54719-3 0  9996
2 67366  97.8040  39.2215 0008405 186.4503 173.6606 14.87155297  4017
LEMUR-2-SONNENBLUME     
1 67367U 26004E   26038.59403474  .00007459  00000+0  83108-3 0  9993
2 67367  97.7971  39.2767 0007271 198.5238 161.5715 14.87339407  4026
LEMUR-2-WOBLER          
1 67368U 26004F   26038.59339524  .00006893  00000+0  76814-3 0  9995
2 67368  97.8032  39.2899 0007770 187.1125 172.9982 14.87360832  4023
TWILIGHT G              
1 67369U 26004G   26038.59292274  .00003879  00000+0  43585-3 0  9996
2 67369  97.7963  39.2769 0006643 200.6955 159.3993 14.87290249  4027
